[{"OBJECT_NAME":"STARLINK-30366","OBJECT_ID":"2023-131T","EPOCH":"2026-03-09T07:38:57.876288","MEAN_MOTION":15.02782844,"ECCENTRICITY":0.00016492,"INCLINATION":42.9994,"RA_OF_ASC_NODE":173.3496,"ARG_OF_PERICENTER":272.4475,"MEAN_ANOMALY":87.6179,"EPHEMERIS_TYPE":0,"CLASSIFICATION_TYPE":"U","NORAD_CAT_ID":57749,"ELEMENT_SET_NO":999,"REV_AT_EPOCH":13987,"BSTAR":0.00073504107,"MEAN_MOTION_DOT":9.804e-5,"MEAN_MOTION_DDOT":0},{"OBJECT_NAME":"NOAA 17 DEB","OBJECT_ID":"2002-032W","EPOCH":"2026-03-09T23:34:50.358720","MEAN_MOTION":15.06684432,"ECCENTRICITY":0.0012716,"INCLINATION":98.7039,"RA_OF_ASC_NODE":76.0065,"ARG_OF_PERICENTER":104.6864,"MEAN_ANOMALY":255.577,"EPHEMERIS_TYPE":0,"CLASSIFICATION_TYPE":"U","NORAD_CAT_ID":48181,"ELEMENT_SET_NO":999,"REV_AT_EPOCH":26088,"BSTAR":0.0078736038,"MEAN_MOTION_DOT":0.00118919,"MEAN_MOTION_DDOT":0}]
